ICEYE-X13               
1 48916U 21059AP  22075.19633397  .00006916  00000+0  44090-3 0  9993
2 48916  97.5404 205.2350 0001803  76.0661  44.6600 15.09034761 39798
ICEYE-X15               
1 48917U 21059AQ  22075.14869684  .00007570  00000+0  41484-3 0  9990
2 48917  97.5382 205.7694 0013019  60.5487 112.6730 15.14413685 39822
ICEYE-X11               
1 48918U 21059AR  22075.14892653  .00006881  00000+0  37933-3 0  9991
2 48918  97.5374 205.7263 0013434  61.0943  63.9109 15.14229342 39823
NUSAT-22 (SOFYA)        
1 48919U 21059AS  22075.15272080  .00016301  00000+0  48041-3 0  9999
2 48919  97.3511 206.7059 0013829  14.6516 158.6038 15.35008788 40206
NUSAT-21 (ELISA)        
1 48920U 21059AT  22075.18943352  .00015936  00000+0  46900-3 0  9996
2 48920  97.3379 206.4659 0014294  28.3532  92.2249 15.35050954 40210
NUSAT-20 (GRACE)        
1 48921U 21059AU  22075.16246734  .00016312  00000+0  48016-3 0  9994
2 48921  97.3482 206.7298 0014384  46.9637  76.4166 15.35037946 40207
D2/ATLACOM-1            
1 48922U 21059AV  22075.18021031  .00009148  00000+0  50228-3 0  9995
2 48922  97.5315 205.6065 0013496  56.2768  64.9561 15.14277993 39830
LEMUR-2-ANNABANANA      
1 48923U 21059AW  22074.86016779  .00010339  00000+0  54982-3 0  9998
2 48923  97.5314 205.4012 0012474  60.0063 300.2406 15.15391192 39794
FARADAY_PHOENIX         
1 48924U 21059AX  22075.17434206  .00005084  00000+0  28132-3 0  9992
2 48924  97.5404 205.8859 0019620  62.0843  60.5431 15.14136415 39839
LEMUR-2-JOHN-TREIRES    
1 48925U 21059AY  22074.85213483  .00011218  00000+0  58801-3 0  9991
2 48925  97.5370 205.6991 0015055  61.7718 298.5033 15.15848315 39800
KSF1-B                  
1 48926U 21059AZ  22075.17270749  .00011091  00000+0  58596-3 0  9996
2 48926  97.5395 206.1072 0016924  58.7673 301.5215 15.15547270 39854
LEMUR-2-AC-CUBED        
1 48927U 21059BA  22075.15552252  .00010025  00000+0  52580-3 0  9990
2 48927  97.5351 205.9842 0017632  63.6339 296.6701 15.15819562 39850
PAINANI-2               
1 48928U 21059BB  22074.86979274  .00004874  00000+0  26449-3 0  9995
2 48928  97.5414 205.8007 0016377  64.3829 295.9093 15.14907034 39802
LEMUR-2-MERIMA          
1 48929U 21059BC  22075.12936491  .00010426  00000+0  54108-3 0  9993
2 48929  97.5318 205.9467 0017283  64.3404 295.9612 15.16188217 39851
KSF1-A                  
1 48930U 21059BD  22075.14133867  .00008984  00000+0  47170-3 0  9990
2 48930  97.5325 205.9073 0016149  61.7459 298.5401 15.15838611 39859
HAWK-3B                 
1 48931U 21059BE  22074.86146566  .00003075  00000+0  16944-3 0  9990
2 48931  97.5243 205.2924 0017291  72.0077 288.3037 15.14633827 39805
SPACEBEE-92             
1 48932U 21059BF  22075.13040322  .00021327  00000+0  10249-2 0  9996
2 48932  97.5312 206.4263 0016138  66.6766 293.6164 15.18729583 39882
SPACEBEE-89             
1 48933U 21059BG  22074.85116712  .00022519  00000+0  10734-2 0  9995
2 48933  97.5309 206.1729 0015939  67.4421 292.8498 15.19003553 39848
SPACEBEE-96             
1 48934U 21059BH  22075.07933170  .00020396  00000+0  98715-3 0  9993
2 48934  97.5316 206.3441 0016344  66.9700 293.3256 15.18489686 39870
SPACEBEE-88             
1 48935U 21059BJ  22075.17947900  .00024113  00000+0  11469-2 0  9992
2 48935  97.5307 206.4971 0015932  66.0232 294.2668 15.19064366 39897
SPACEBEE-99             
1 48936U 21059BK  22074.89097383  .00018653  00000+0  90813-3 0  9995
2 48936  97.5323 206.1440 0016398  67.9482 292.3492 15.18302011 39848
SPACEBEE-94             
1 48937U 21059BL  22074.93714411  .00019898  00000+0  95936-3 0  9992
2 48937  97.5310 206.2182 0016296  67.6662 292.6298 15.18628328 39853
SHANNON                 
1 48938U 21059BM  22074.83530803  .00005549  00000+0  30006-3 0  9998
2 48938  97.5390 205.7589 0017903  69.3321 290.9828 15.14943414 39801
SPACEBEE-93             
1 48939U 21059BN  22074.86039497  .00021935  00000+0  10499-2 0  9995
2 48939  97.5310 206.1643 0016038  67.1135 293.1791 15.18864226 39842
SPACEBEE-91             
1 48940U 21059BP  22074.85534648  .00022051  00000+0  10533-2 0  9993
2 48940  97.5308 206.1704 0015916  67.3208 292.9707 15.18936076 39843
SHERPA-LTE1             
1 48941U 21059BQ  22075.11042354  .00009234  00000+0  40158-3 0  9997
2 48941  97.5297 206.4488 0023077  82.1415 278.2439 15.22245490 39875
KSF1-C                  
1 48942U 21059BR  22075.16580689  .00012936  00000+0  67062-3 0  9997
2 48942  97.5429 206.3687 0017133  67.3444 292.9598 15.16174416 39866
QMR-KWT                 
1 48943U 21059BS  22074.87566708  .00005735  00000+0  31381-3 0  9995
2 48943  97.5370 205.4867 0009920  69.0982 291.1311 15.14604253 39794
AYAN-21                 
1 48944U 21059BT  22074.58803004  .00006308  00000+0  33475-3 0  9990
2 48944  97.5381 205.6398 0016652  61.7901 298.5010 15.15580164 39778
SPACEBEE-95             
1 48945U 21059BU  22074.86906017  .00019795  00000+0  95216-3 0  9995
2 48945  97.5317 206.1652 0016065  67.5210 292.7724 15.18713805 39841
SPACEBEE-97             
1 48946U 21059BV  22074.88374651  .00019409  00000+0  94129-3 0  9995
2 48946  97.5319 206.1466 0016394  68.0125 292.2848 15.18429103 39840
SPACEBEE-90             
1 48947U 21059BW  22075.11650459  .00024617  00000+0  11737-2 0  9996
2 48947  97.5310 206.4343 0015935  66.4567 293.8340 15.18976760 39885
HAWK-3C                 
1 48948U 21059BX  22075.12545943  .00003099  00000+0  17064-3 0  9990
2 48948  97.5496 206.3048 0018329  73.0218 287.3021 15.14638699 39841
SPACEBEE-98             
1 48949U 21059BY  22075.14946901  .00019786  00000+0  95885-3 0  9999
2 48949  97.5327 206.4164 0016247  66.5566 293.7374 15.18452291 39887
KSF1-D                  
1 48950U 21059BZ  22075.15276484  .00011224  00000+0  58258-3 0  9996
2 48950  97.5343 206.1102 0016695  68.5926 291.7086 15.16171553 39868
DEMO8 (TENZING)         
1 48951U 21059CA  22075.08005905  .00002557  00000+0  14244-3 0  9993
2 48951  97.5408 205.9316 0018135  69.4488 290.8688 15.14392545 39838
ASTROCAST-0204          
1 48952U 21059CB  22074.87043144  .00003780  00000+0  20504-3 0  9992
2 48952  97.5403 205.8945 0017557  63.6461 296.6571 15.15048092 39814
ARTHUR-1                
1 48953U 21059CC  22075.14748971  .00005951  00000+0  31848-3 0  9999
2 48953  97.5363 206.1141 0015939  67.7684 105.3256 15.15313847 39859
ASTROCAST-0201          
1 48954U 21059CD  22074.84958096  .00002905  00000+0  16096-3 0  9991
2 48954  97.5381 205.7604 0014138  70.6014 289.6745 15.14529048 39804
ASTROCAST-0203          
1 48955U 21059CE  22075.06995146  .00002876  00000+0  15925-3 0  9991
2 48955  97.5355 205.8232 0017054  68.3986 291.9061 15.14520030 39838
DEMO9 (AURORA)          
1 48956U 21059CF  22074.84367016  .00004527  00000+0  24641-3 0  9996
2 48956  97.5395 205.7509 0018435  66.7593 293.5578 15.14801366 39801
HAWK-3A                 
1 48957U 21059CG  22075.12530378  .00003031  00000+0  16700-3 0  9998
2 48957  97.5370 205.9329 0018301  68.1595 292.1581 15.14638110 39845
SHERPA-FX2 & TAGSAT-2   
1 48958U 21059CH  22075.11264617  .00003514  00000+0  19299-3 0  9990
2 48958  97.5398 206.0267 0018247  66.1575 294.1567 15.14648168 39844
LEMUR-2-CARLSANTAMARI   
1 48959U 21059CJ  22074.92773008  .00011325  00000+0  57866-3 0  9999
2 48959  97.5335 205.9525 0016923  69.4425 290.8622 15.16721328 39836
ASTROCAST-0205          
1 48960U 21059CK  22075.09181343  .00003517  00000+0  19401-3 0  9992
2 48960  97.5370 206.0236 0016463  59.3875 300.8977 15.14515414 39845
ASTROCAST-0202          
1 48961U 21059CL  22075.08834985  .00003858  00000+0  20780-3 0  9999
2 48961  97.5397 206.2083 0015704  64.9002 295.3858 15.15312154 39852
GHALIB                  
1 48962U 21059CM  22074.93250657  .00005505  00000+0  30048-3 0  9990
2 48962  97.5362 205.5558 0009835  68.7954 291.4328 15.14709972 39801
NAPA-2                  
1 48963U 21059CN  22075.19638142  .00003452  00000+0  20061-3 0  9992
2 48963  97.5348 205.2226 0014790  59.4826  60.3791 15.12669484 39804
SPARTAN                 
1 48964U 21059CP  22075.08926038  .00003372  00000+0  18876-3 0  9997
2 48964  97.5317 205.4861 0009209  65.1215 295.0973 15.14091884 39829
W-CUBE                  
1 48965U 21059CQ  22075.08394846  .00003931  00000+0  22623-3 0  9990
2 48965  97.5391 205.2580 0014116  56.5000 303.7578 15.12951871 39790
NEPT-1                  
1 48966U 21059CR  22074.84356918  .00007190  00000+0  39595-3 0  9999
2 48966  97.5281 205.1132 0009610  60.1087 300.1098 15.14289159 39782
ONEWEB-0249             
1 48967U 21060A   22074.91667824 -.00043731  00000+0 -11494+0 0  9998
2 48967  87.9205 178.0822 0001901 114.0688 262.0337 13.16613827  3288
ONEWEB-0250             
1 48968U 21060B   22074.91667824 -.00043801  00000+0 -11513+0 0  9999
2 48968  87.9208 178.0834 0002427 105.4645 248.8577 13.16611458  3282
ONEWEB-0251             
1 48969U 21060C   22075.25001157 -.00020005  00000+0 -56721-3 0  9994
2 48969  87.4226 147.1859 0010351  35.1056 279.3276 15.36372633 40797
ONEWEB-0252             
1 48970U 21060D   22074.91667824 -.00046294  00000+0 -12170+0 0  9991
2 48970  87.9192 178.0977 0002132 116.9311 106.4317 13.16619542  3299
ONEWEB-0253             
1 48971U 21060E   22074.91667824 -.00045495  00000+0 -11959+0 0  9998
2 48971  87.9200 178.1107 0002440 115.6407 151.3424 13.16619172  3286
ONEWEB-0254             
1 48972U 21060F   22074.91667824 -.00046138  00000+0 -12129+0 0  9994
2 48972  87.9201 178.0708 0002429 115.7916 118.5499 13.16617636  3298
ONEWEB-0255             
1 48973U 21060G   22074.91667824  .00002113  00000+0  54942-2 0  9990
2 48973  87.9203 178.1340 0002036 108.5696 300.1752 13.16585043  3290
ONEWEB-0256             
1 48974U 21060H   22074.91667824 -.00044964  00000+0 -11819+0 0  9996
2 48974  87.9197 178.1055 0001592 112.7843 176.0493 13.16617715  3286
